OBJECT_NAME,OBJECT_ID,EPOCH,MEAN_MOTION,ECCENTRICITY,INCLINATION,RA_OF_ASC_NODE,ARG_OF_PERICENTER,MEAN_ANOMALY,EPHEMERIS_TYPE,CLASSIFICATION_TYPE,NORAD_CAT_ID,ELEMENT_SET_NO,REV_AT_EPOCH,BSTAR,MEAN_MOTION_DOT,MEAN_MOTION_DDOT
ONEWEB-0130,2020-100U,2026-07-03T21:15:34.235424,13.12443330,.00018697,87.8961,347.3318,97.4109,262.7232,0,U,47276,999,26683,.30031119E-3,.121E-5,0
ONEWEB-0131,2020-100V,2026-07-04T09:59:09.434688,13.12443321,.00017248,87.8951,347.2428,98.4125,261.7199,0,U,47277,999,26694,-.11750769E-3,-.3E-6,0
ONEWEB-0132,2020-100W,2026-07-04T03:21:30.265632,13.12441285,.0001786,87.8951,347.2999,95.8649,264.2683,0,U,47278,999,26680,.85727112E-3,.321E-5,0
ONEWEB-0133,2020-100X,2026-07-04T09:15:02.415168,13.12441993,.0001697,87.8963,347.2287,97.7651,262.3671,0,U,47279,999,26699,-.26742138E-3,-.83E-6,0
ONEWEB-0134,2020-100Y,2026-07-04T10:21:06.792768,13.12442426,.00018994,87.8964,347.2172,101.8501,258.2840,0,U,47280,999,26697,.10634895E-2,.395E-5,0
ONEWEB-0135,2020-100Z,2026-07-04T09:39:37.823040,13.12442989,.00017924,87.8951,347.2435,104.1423,255.9905,0,U,47281,999,26699,-.87249025E-3,-.301E-5,0
ONEWEB-0136,2020-100AA,2026-07-04T10:06:28.415808,13.12443387,.0001936,87.8958,347.2224,103.4432,256.6912,0,U,47282,999,26692,.25319603E-3,.104E-5,0
ONEWEB-0137,2020-100AB,2026-07-04T10:55:16.198176,13.12441649,.00018639,87.8963,347.2265,89.7560,270.3782,0,U,47283,999,26683,.36569287E-3,.144E-5,0
ONEWEB-0138,2020-100AC,2026-07-04T10:23:33.590688,13.12442404,.00019503,87.8959,347.2358,99.7604,260.3745,0,U,47284,999,26691,.11523402E-2,.427E-5,0
ONEWEB-0139,2020-100AD,2026-07-04T09:32:31.283520,13.12442468,.00018875,87.8959,347.2291,94.9481,265.1863,0,U,47285,999,26698,-.92467213E-3,-.32E-5,0
ONEWEB-0140,2020-100AE,2026-07-04T10:16:14.199168,13.12443287,.00016668,87.8961,347.2142,96.0820,264.0499,0,U,47286,999,26695,.6806247E-3,.258E-5,0
ONEWEB-0141,2020-100AF,2026-07-04T09:32:06.881568,13.12442310,.00019865,87.8961,347.2250,86.9165,273.2191,0,U,47287,999,26693,-.99808566E-3,-.346E-5,0
ONEWEB-0142,2020-100AG,2026-07-04T11:05:14.183808,13.12442325,.00022269,87.8954,347.2326,91.9076,268.2308,0,U,47288,999,26693,-.29015262E-3,-.92E-6,0
ONEWEB-0143,2020-100AH,2026-07-04T09:29:52.555488,13.12442491,.00018419,87.8955,347.2454,93.0684,267.0655,0,U,47289,999,26690,-.88549155E-3,-.306E-5,0
ONEWEB-0144,2020-100AJ,2026-07-03T10:51:02.053440,13.12441366,.00021297,87.8961,347.4078,100.7857,259.3511,0,U,47290,999,26670,.84471889E-3,.317E-5,0
ONEWEB-0145,2020-100AK,2026-07-04T09:56:42.867456,13.12443200,.00019184,87.8954,347.2426,95.0454,265.0893,0,U,47291,999,26702,-.56418954E-3,-.19E-5,0
ONEWEB-0146,2020-100AL,2026-07-04T04:22:29.490528,13.12443232,.00014849,87.8962,347.2818,91.3813,268.7485,0,U,47292,999,26690,-.61878074E-3,-.21E-5,0
ONEWEB-0147,2020-100AM,2026-07-04T10:52:50.022336,13.12441874,.00017607,87.8960,347.2096,98.8366,261.2962,0,U,47293,999,26683,.53846208E-3,.206E-5,0
ONEWEB-0115,2021-025A,2026-07-04T14:53:20.858784,13.13471358,.00018186,87.8975,316.7534,98.9489,261.1846,0,U,48042,999,25588,-.65405055E-3,-.226E-5,0
ONEWEB-0152,2021-025B,2026-07-04T07:54:03.993696,13.13469381,.00017417,87.8978,316.8089,99.5474,260.5852,0,U,48043,999,25580,-.20630585E-3,-.63E-6,0
ONEWEB-0153,2021-025C,2026-07-04T14:41:09.068928,13.13468667,.00019887,87.8971,316.7543,98.8145,261.3210,0,U,48044,999,25583,-.37747796E-3,-.125E-5,0
ONEWEB-0154,2021-025D,2026-07-04T14:36:16.989408,13.13469673,.00017992,87.8979,316.7535,104.4155,255.7174,0,U,48045,999,25579,-.16463106E-3,-.47E-6,0
ONEWEB-0116,2021-025E,2026-07-04T15:32:20.248512,13.13491152,.00013926,87.8978,316.7430,98.4219,261.7068,0,U,48046,999,25594,.69739252E-2,.2561E-4,0
ONEWEB-0150,2021-025F,2026-07-04T14:58:13.484352,13.13469190,.00019451,87.8979,316.7449,93.1742,266.9609,0,U,48047,999,25583,-.96610674E-3,-.34E-5,0
ONEWEB-0107,2021-025G,2026-07-04T15:00:41.101344,13.13460366,.00020873,87.8985,316.7406,99.4721,260.6644,0,U,48048,999,25581,-.31683952E-2,-.1144E-4,0
ONEWEB-0101,2021-025H,2026-07-04T15:56:44.279232,13.13491299,.00022048,87.8969,316.7469,91.5662,268.5720,0,U,48049,999,25579,-.10680801E-1,-.3887E-4,0
ONEWEB-0113,2021-025J,2026-07-04T14:34:02.629632,13.13891964,.00018505,87.8976,316.6668,94.6879,265.4462,0,U,48050,999,25589,-.20780282E-3,-.64E-6,0
ONEWEB-0112,2021-025K,2026-07-04T15:07:58.182528,13.13470109,.00020931,87.8981,316.7379,104.3238,255.8123,0,U,48051,999,25588,-.44878794E-3,-.151E-5,0
ONEWEB-0156,2021-025L,2026-07-04T15:20:10.611744,13.13472445,.00020166,87.8980,316.7460,96.9688,263.1671,0,U,48052,999,25586,-.61655118E-4,-.1E-6,0
ONEWEB-0161,2021-025M,2026-07-04T14:43:35.103072,13.13468857,.00020741,87.8978,316.7520,97.4836,262.6529,0,U,48053,999,25579,-.47502866E-3,-.161E-5,0
