ONEWEB-0130             
1 47276U 20100U   26184.88581291  .00000121  00000+0  30031-3 0  9995
2 47276  87.8961 347.3318 0001869  97.4109 262.7232 13.12443330266833
ONEWEB-0131             
1 47277U 20100V   26185.41608142 -.00000030  00000+0 -11751-3 0  9990
2 47277  87.8951 347.2428 0001724  98.4125 261.7199 13.12443321266946
ONEWEB-0132             
1 47278U 20100W   26185.13993363  .00000321  00000+0  85727-3 0  9997
2 47278  87.8951 347.2999 0001786  95.8649 264.2683 13.12441285266808
ONEWEB-0133             
1 47279U 20100X   26185.38544462 -.00000083  00000+0 -26742-3 0  9996
2 47279  87.8963 347.2287 0001697  97.7651 262.3671 13.12441993266999
ONEWEB-0134             
1 47280U 20100Y   26185.43132862  .00000395  00000+0  10635-2 0  9998
2 47280  87.8964 347.2172 0001899 101.8501 258.2840 13.12442426266972
ONEWEB-0135             
1 47281U 20100Z   26185.40252110 -.00000301  00000+0 -87249-3 0  9990
2 47281  87.8951 347.2435 0001792 104.1423 255.9905 13.12442989266994
ONEWEB-0136             
1 47282U 20100AA  26185.42116222  .00000104  00000+0  25320-3 0  9997
2 47282  87.8958 347.2224 0001936 103.4432 256.6912 13.12443387266922
ONEWEB-0137             
1 47283U 20100AB  26185.45504859  .00000144  00000+0  36569-3 0  9999
2 47283  87.8963 347.2265 0001863  89.7560 270.3782 13.12441649266838
ONEWEB-0138             
1 47284U 20100AC  26185.43302767  .00000427  00000+0  11523-2 0  9998
2 47284  87.8959 347.2358 0001950  99.7604 260.3745 13.12442404266911
ONEWEB-0139             
1 47285U 20100AD  26185.39758430 -.00000320  00000+0 -92467-3 0  9997
2 47285  87.8959 347.2291 0001887  94.9481 265.1863 13.12442468266988
ONEWEB-0140             
1 47286U 20100AE  26185.42794212  .00000258  00000+0  68062-3 0  9992
2 47286  87.8961 347.2142 0001666  96.0820 264.0499 13.12443287266952
ONEWEB-0141             
1 47287U 20100AF  26185.39730187 -.00000346  00000+0 -99809-3 0  9993
2 47287  87.8961 347.2250 0001986  86.9165 273.2191 13.12442310266933
ONEWEB-0142             
1 47288U 20100AG  26185.46196972 -.00000092  00000+0 -29015-3 0  9990
2 47288  87.8954 347.2326 0002226  91.9076 268.2308 13.12442325266935
ONEWEB-0143             
1 47289U 20100AH  26185.39574717 -.00000306  00000+0 -88549-3 0  9995
2 47289  87.8955 347.2454 0001841  93.0684 267.0655 13.12442491266902
ONEWEB-0144             
1 47290U 20100AJ  26184.45210710  .00000317  00000+0  84472-3 0  9994
2 47290  87.8961 347.4078 0002129 100.7857 259.3511 13.12441366266706
ONEWEB-0145             
1 47291U 20100AK  26185.41438504 -.00000190  00000+0 -56419-3 0  9996
2 47291  87.8954 347.2426 0001918  95.0454 265.0893 13.12443200267020
ONEWEB-0146             
1 47292U 20100AL  26185.18228577 -.00000210  00000+0 -61878-3 0  9996
2 47292  87.8962 347.2818 0001484  91.3813 268.7485 13.12443232266909
ONEWEB-0147             
1 47293U 20100AM  26185.45335674  .00000206  00000+0  53846-3 0  9993
2 47293  87.8960 347.2096 0001760  98.8366 261.2962 13.12441874266838
ONEWEB-0115             
1 48042U 21025A   26185.62038031 -.00000226  00000+0 -65405-3 0  9997
2 48042  87.8975 316.7534 0001818  98.9489 261.1846 13.13471358255880
ONEWEB-0152             
1 48043U 21025B   26185.32921289 -.00000063  00000+0 -20631-3 0  9992
2 48043  87.8978 316.8089 0001741  99.5474 260.5852 13.13469381255801
ONEWEB-0153             
1 48044U 21025C   26185.61191052 -.00000125  00000+0 -37748-3 0  9998
2 48044  87.8971 316.7543 0001988  98.8145 261.3210 13.13468667255835
ONEWEB-0154             
1 48045U 21025D   26185.60852997 -.00000047  00000+0 -16463-3 0  9994
2 48045  87.8979 316.7535 0001799 104.4155 255.7174 13.13469673255799
ONEWEB-0116             
1 48046U 21025E   26185.64745658  .00002561  00000+0  69739-2 0  9998
2 48046  87.8978 316.7430 0001392  98.4219 261.7068 13.13491152255948
ONEWEB-0150             
1 48047U 21025F   26185.62376718 -.00000340  00000+0 -96611-3 0  9999
2 48047  87.8979 316.7449 0001945  93.1742 266.9609 13.13469190255830
ONEWEB-0107             
1 48048U 21025G   26185.62547571 -.00001144  00000+0 -31684-2 0  9998
2 48048  87.8985 316.7406 0002087  99.4721 260.6644 13.13460366255819
ONEWEB-0101             
1 48049U 21025H   26185.66440138 -.00003887  00000+0 -10681-1 0  9993
2 48049  87.8969 316.7469 0002204  91.5662 268.5720 13.13491299255797
ONEWEB-0113             
1 48050U 21025J   26185.60697488 -.00000064  00000+0 -20780-3 0  9998
2 48050  87.8976 316.6668 0001850  94.6879 265.4462 13.13891964255890
ONEWEB-0112             
1 48051U 21025K   26185.63053452 -.00000151  00000+0 -44879-3 0  9991
2 48051  87.8981 316.7379 0002093 104.3238 255.8123 13.13470109255885
ONEWEB-0156             
1 48052U 21025L   26185.63901171 -.00000010  00000+0 -61655-4 0  9998
2 48052  87.8980 316.7460 0002016  96.9688 263.1671 13.13472445255869
ONEWEB-0161             
1 48053U 21025M   26185.61360073 -.00000161  00000+0 -47503-3 0  9999
2 48053  87.8978 316.7520 0002074  97.4836 262.6529 13.13468857255799
